H1 CPF 01  gfz 2021 01 31 13  5312 terrasarx 
H2 0702601  6201 31698    2021 01 31 12 59 42 2021 02 05 00 00 42   120 1 1  0 0 0
H9
10 0 59248  19422.000000  0   -4323366.376     -5967.176   5352926.821
10 0 59248  19542.000000  0   -3590051.724    214374.586   5864895.157
10 0 59248  19662.000000  0   -2790345.004    417558.564   6273727.005
10 0 59248  19782.000000  0   -1938568.288    599003.092   6572272.593
10 0 59248  19902.000000  0   -1050014.047    754766.391   6755317.974
10 0 59248  20022.000000  0    -140667.805    881628.818   6819669.658
10 0 59248  20142.000000  0     773079.165    977157.192   6764206.086
10 0 59248  20262.000000  0    1674724.032   1039751.010   6589895.956
10 0 59248  20382.000000  0    2547949.369   1068669.607   6299782.432
10 0 59248  20502.000000  0    3376918.216   1064039.411   5898934.062
10 0 59248  20622.000000  0    4146563.869   1026841.530   5394361.232
10 0 59248  20742.000000  0    4842866.667    958879.923   4794899.149
10 0 59248  20862.000000  0    5453116.235    862730.315   4111060.868
10 0 59248  20982.000000  0    5966153.840    741671.482   3354856.876
10 0 59248  21102.000000  0    6372586.333    599600.003   2539584.353
10 0 59248  21222.000000  0    6664966.775    440929.371   1679592.517
10 0 59248  21342.000000  0    6837940.917    270477.038    790026.083
10 0 59248  21462.000000  0    6888350.731     93341.583   -113448.467
10 0 59248  21582.000000  0    6815295.328    -85227.131  -1014927.619
10 0 59248  21702.000000  0    6620145.096   -259961.125  -1898559.952
10 0 59248  21822.000000  0    6306509.989   -425707.274  -2748832.802
10 0 59248  21942.000000  0    5880163.553   -577557.160  -3550849.789
10 0 59248  22062.000000  0    5348925.097   -710970.024  -4290594.359
10 0 59248  22182.000000  0    4722503.043   -821885.383  -4955173.242
10 0 59248  22302.000000  0    4012305.728   -906822.980  -5533035.408
10 0 59248  22422.000000  0    3231223.961   -962969.276  -6014164.945
10 0 59248  22542.000000  0    2393389.460   -988248.072  -6390244.319
10 0 59248  22662.000000  0    1513915.635   -981372.687  -6654786.551
10 0 59248  22782.000000  0     608625.728   -941881.118  -6803236.288
10 0 59248  22902.000000  0    -306228.344   -870152.995  -6833040.308
10 0 59248  23022.000000  0   -1214251.561   -767407.505  -6743685.979
10 0 59248  23142.000000  0   -2099192.814   -635683.126  -6536709.630
10 0 59248  23262.000000  0   -2945229.499   -477798.742  -6215671.871
10 0 59248  23382.000000  0   -3737243.724   -297297.470  -5786102.703
10 0 59248  23502.000000  0   -4461090.825    -98373.301  -5255417.500
10 0 59248  23622.000000  0   -5103853.925    114218.217  -4632799.532
10 0 59248  23742.000000  0   -5654079.821    335263.310  -3929053.307
10 0 59248  23862.000000  0   -6101993.451    559207.135  -3156427.292
10 0 59248  23982.000000  0   -6439683.753    780281.294  -2328407.725
10 0 59248  24102.000000  0   -6661256.156    992639.597  -1459486.405
10 0 59248  24222.000000  0   -6762949.055   1190498.344   -564906.979
10 0 59248  24342.000000  0   -6743208.192   1368277.692    339608.839
10 0 59248  24462.000000  0   -6602715.120   1520740.314   1238144.200
10 0 59248  24582.000000  0   -6344373.023   1643124.791   2114875.120
10 0 59248  24702.000000  0   -5973247.416   1731269.479   2954358.537
10 0 59248  24822.000000  0   -5496462.603   1781723.134   3741813.035
10 0 59248  24942.000000  0   -4923056.713   1791839.557   4463384.868
10 0 59248  25062.000000  0   -4263800.904   1759854.465   5106393.693
10 0 59248  25182.000000  0   -3530988.070   1684942.939   5659554.396
10 0 59248  25302.000000  0   -2738195.919   1567256.314   6113172.799
10 0 59248  25422.000000  0   -1900027.494   1407938.106   6459311.901
10 0 59248  25542.000000  0   -1031835.740   1209117.507   6691924.073
10 0 59248  25662.000000  0    -149439.663    973881.822   6806949.384
10 0 59248  25782.000000  0     731163.496    706228.337   6802381.425
10 0 59248  25902.000000  0    1594087.056    410996.230   6678299.949
10 0 59248  26022.000000  0    2423840.081     93779.761   6436869.728
10 0 59248  26142.000000  0    3205605.063   -239176.596   6082306.454
10 0 59248  26262.000000  0    3925504.672   -581099.411   5620807.909
10 0 59248  26382.000000  0    4570851.662   -924821.787   5060451.128
10 0 59248  26502.000000  0    5130378.304  -1262931.209   4411057.454
10 0 59248  26622.000000  0    5594441.245  -1587926.116   3684025.262
10 0 59248  26742.000000  0    5955197.092  -1892378.994   2892132.684
10 0 59248  26862.000000  0    6206744.244  -2169101.986   2049312.788
10 0 59248  26982.000000  0    6345226.808  -2411310.759   1170405.587
10 0 59248  27102.000000  0    6368898.896  -2612782.678    270891.007
10 0 59248  27222.000000  0    6278145.919  -2768005.391   -633391.989
10 0 59248  27342.000000  0    6075463.169  -2872311.445  -1526533.627
10 0 59248  27462.000000  0    5765390.126  -2921995.818  -2392842.263
10 0 59248  27582.000000  0    5354404.858  -2914412.825  -3217126.253
10 0 59248  27702.000000  0    4850781.539  -2848050.672  -3984963.894
10 0 59248  27822.000000  0    4264415.333  -2722582.979  -4682955.916
10 0 59248  27942.000000  0    3606618.036  -2538895.346  -5298956.501
10 0 59248  28062.000000  0    2889890.667  -2299086.477  -5822276.499
10 0 59248  28182.000000  0    2127681.440  -2006445.742  -6243858.152
10 0 59248  28302.000000  0    1334131.644  -1665407.528  -6556422.560
10 0 59248  28422.000000  0     523812.534  -1281481.814  -6754584.681
10 0 59248  28542.000000  0    -288539.020   -861164.837  -6834935.848
10 0 59248  28662.000000  0   -1088282.912   -411830.490  -6796095.375
10 0 59248  28782.000000  0   -1861133.489     58396.097  -6638731.782
10 0 59248  28902.000000  0   -2593408.964    540781.972  -6365551.569
10 0 59248  29022.000000  0   -3272268.023   1026143.771  -5981257.588
10 0 59248  29142.000000  0   -3885932.349   1505017.870  -5492477.586
10 0 59248  29262.000000  0   -4423892.957   1967840.540  -4907661.443
10 0 59248  29382.000000  0   -4877095.235   2405136.897  -4236946.623
10 0 59248  29502.000000  0   -5238098.382   2807713.370  -3491992.001
10 0 59248  29622.000000  0   -5501206.422   3166849.413  -2685784.043
10 0 59248  29742.000000  0   -5662568.615   3474486.159  -1832416.141
10 0 59248  29862.000000  0   -5720244.587   3723406.655   -946843.439
10 0 59248  29982.000000  0   -5674231.811   3907402.121    -44617.880
10 0 59248  30102.000000  0   -5526455.091   4021420.990    858390.868
10 0 59248  30222.000000  0   -5280715.828   4061695.186   1746284.179
10 0 59248  30342.000000  0   -4942602.039   4025840.100   2603423.415
10 0 59248  30462.000000  0   -4519363.660   3912927.140   3414713.041
10 0 59248  30582.000000  0   -4019755.290   3723526.350   4165873.859
10 0 59248  30702.000000  0   -3453850.555   3459717.027   4843698.115
10 0 59248  30822.000000  0   -2832833.504   3125068.564   5436282.983
10 0 59248  30942.000000  0   -2168771.239   2724590.595   5933237.821
10 0 59248  31062.000000  0   -1474374.200   2264654.619   6325862.381
10 0 59248  31182.000000  0    -762748.301   1752888.331   6607292.496
10 0 59248  31302.000000  0     -47146.993   1198046.282   6772612.543
10 0 59248  31422.000000  0     659275.217    609858.405   6818936.642
10 0 59248  31542.000000  0    1343703.844     -1140.672   6745455.335
10 0 59248  31662.000000  0    1993895.641   -623799.391   6553449.281
10 0 59248  31782.000000  0    2598397.033  -1246552.330   6246268.939
10 0 59248  31902.000000  0    3146746.854  -1857634.002   5829280.630
10 0 59248  32022.000000  0    3629660.579  -2445301.620   5309778.405
10 0 59248  32142.000000  0    4039191.522  -2998061.553   4696862.175
10 0 59248  32262.000000  0    4368866.681  -3504896.709   4001284.105
10 0 59248  32382.000000  0    4613794.492  -3955489.964   3235263.830
10 0 59248  32502.000000  0    4770742.335  -4340438.421   2412275.001
10 0 59248  32622.000000  0    4838180.800  -4651452.663   1546805.613
10 0 59248  32742.000000  0    4816292.773  -4881536.428    654098.148
10 0 59248  32862.000000  0    4706947.629  -5025142.824   -250125.806
10 0 59248  32982.000000  0    4513641.321  -5078301.845  -1149950.513
10 0 59248  33102.000000  0    4241404.054  -5038716.314  -2029555.571
10 0 59248  33222.000000  0    3896676.478  -4905823.541  -2873501.687
10 0 59248  33342.000000  0    3487159.191  -4680821.506  -3667007.126
10 0 59248  33462.000000  0    3021639.465  -4366659.864  -4396208.401
10 0 59248  33582.000000  0    2509800.129  -3967996.204  -5048401.473
10 0 59248  33702.000000  0    1962014.681  -3491118.325  -5612256.765
10 0 59248  33822.000000  0    1389136.003  -2943837.878  -6078005.721
10 0 59248  33942.000000  0     802281.671  -2335357.637  -6437599.993
10 0 59248  34062.000000  0     212619.250  -1676112.812  -6684840.324
10 0 59248  34182.000000  0    -368843.057   -977590.259  -6815472.645
10 0 59248  34302.000000  0    -931456.589   -252129.829  -6827252.594
10 0 59248  34422.000000  0   -1465122.335    487289.129  -6719979.331
10 0 59248  34542.000000  0   -1960468.158   1227273.899  -6495498.051
10 0 59248  34662.000000  0   -2409009.421   1954255.003  -6157671.634
10 0 59248  34782.000000  0   -2803292.492   2654729.010  -5712321.921
10 0 59248  34902.000000  0   -3137019.146   3315506.378  -5167140.211
10 0 59248  35022.000000  0   -3405150.067   3923959.638  -4531566.396
10 0 59248  35142.000000  0   -3603985.170   4468267.516  -3816635.808
10 0 59248  35262.000000  0   -3731216.982   4937648.807  -3034795.603
10 0 59248  35382.000000  0   -3785956.901   5322581.249  -2199695.274
10 0 59248  35502.000000  0   -3768735.061   5615002.079  -1325952.564
10 0 59248  35622.000000  0   -3681471.179   5808484.985   -428896.846
10 0 59248  35742.000000  0   -3527416.107   5898385.223    475704.708
10 0 59248  35862.000000  0   -3311067.715   5881951.350   1371931.163
99
